S-NET B                 
1 43187U 18014H   22233.28868510  .00002072  00000+0  17973-3 0  9997
2 43187  97.6517 137.7264 0012800  82.3997 277.8679 14.98093998248627
S-NET A                 
1 43188U 18014J   22233.28898606  .00002062  00000+0  17889-3 0  9992
2 43188  97.6521 137.7938 0012799  82.4704 277.7972 14.98093541248624
S-NET C                 
1 43189U 18014K   22233.28980101  .00002051  00000+0  17791-3 0  9995
2 43189  97.6517 137.7153 0012817  82.1462 278.1215 14.98091416247171
FENGMANIU-1 (FMN-1)     
1 43192U 18015A   22233.41473291  .00030484  00000+0  72951-3 0  9992
2 43192  97.5419  20.4464 0010308 153.7352 292.0188 15.41354238253448
SHAONIAN XING           
1 43199U 18015H   22233.42671328  .00016778  00000+0  47939-3 0  9999
2 43199  97.5214  15.0068 0012873 165.0320 284.9627 15.35993468253410
LUOJIA-1 01             
1 43485U 18048B   22233.42678382  .00000814  00000+0  12129-3 0  9997
2 43485  97.9326 313.6410 0010992 357.7259   2.3908 14.77465501227462
SURFSAT                 
1 43614U 18070B   22233.47357337  .00032291  00000+0  40125-3 0  9996
2 43614  93.0242 126.4388 0013362 112.8028 247.4650 15.59774810221188
CP7 (DAVE)              
1 43615U 18070C   22233.47987117  .00028373  00000+0  37702-3 0  9995
2 43615  93.0233 126.2240 0013786 115.1818 245.0878 15.58001111221145
ELFIN-B                 
1 43616U 18070D   22233.23500773  .00164260  00000+0  78009-3 0  9990
2 43616  93.0107 127.9493 0012017 106.9221 253.3375 15.82399348221543
ELFIN-A                 
1 43617U 18070E   22233.46173505  .00249062  22274-4  86653-3 0  9995
2 43617  93.0171 129.6189 0010866 109.9835 250.2618 15.89260200221659
CZ-4B R/B               
1 43656U 18081B   22233.42076177  .00000048  00000+0  32844-4 0  9994
2 43656  99.4064  12.5203 0207618 317.7820  40.7531 14.30593312199643
CUBEBEL-1 (BSUSAT-1)    
1 43666U 18083E   22233.55116787  .00008451  00000+0  34878-3 0  9997
2 43666  97.4180 261.5280 0014892 104.0254  48.1884 15.24183549211391
CHANGSHAGAOXIN (TY 4-01)
1 43669U 18083H   22233.53443146  .00007757  00000+0  33656-3 0  9991
2 43669  97.4131 257.2887 0011383 101.0622  51.9672 15.22560015211205
TEN-KOH                 
1 43677U 18084G   22233.36794763  .00001038  00000+0  11002-3 0  9993
2 43677  97.9723   4.0427 0016957  60.2154 300.0747 14.91236287207350
DIWATA-2B               
1 43678U 18084H   22233.42637137  .00000887  00000+0  92593-4 0  9998
2 43678  97.9796   7.4876 0011286  73.1961 287.0467 14.92264904207547
STARS-AO                
1 43679U 18084J   22233.37098253  .00001487  00000+0  14578-3 0  9996
2 43679  97.9829   9.5161 0010184  77.6798 282.5561 14.93787470207632
AUTCUBE 2               
1 43681U 18084K   22233.28188390  .00001187  00000+0  11949-3 0  9997
2 43681  97.9791   7.9788 0010613  73.3234 286.9149 14.93114611207524
IRVINE01                
1 43693U 18088D   22233.51666722  .00025731  00000+0  60471-3 0  9995
2 43693  85.0254 266.5936 0010464 206.7796 153.2918 15.41809744210230
ES'HAIL 2               
1 43700U 18090A   22233.51609414  .00000140  00000+0  00000+0 0  9997
2 43700   0.0158 108.8643 0002135  88.8133 343.6989  1.00274474 13681
FACSAT-1                
1 43721U 18096C   22233.54034755  .00020286  00000+0  53658-3 0  9993
2 43721  97.3469 313.3790 0013346 174.0965 310.9788 15.38340104207972
CENTAURI-2              
1 43722U 18096D   22233.49368441  .00021034  00000+0  48788-3 0  9990
2 43722  97.3529 315.7032 0012440 171.0536 189.0935 15.42341533208095
3CAT-1                  
1 43728U 18096K   22233.23673549  .00022586  00000+0  52408-3 0  9993
2 43728  97.3545 316.2109 0012273 173.7606 186.3797 15.42318712208090
INNOSAT-2               
1 43738U 18096V   22233.53824521  .00072523  00000+0  10534-2 0  9994
2 43738  97.3616 324.0034 0012233 163.5878 315.6329 15.55475542208602
REAKTOR HELLO WORLD     
1 43743U 18096AA  22233.47405054  .00009241  00000+0  27111-3 0  9996
2 43743  97.3501 313.1177 0014677 179.8229 180.3022 15.35285387207938
ELYSIUM STAR 2 & LFF    
1 43760U 18099C   22233.48713531  .00003483  00000+0  29045-3 0  9991
2 43760  97.6282 300.6338 0014754  48.9313 311.3182 14.99162471202869
2018-099D               
1 43761U 18099D   22233.28609259  .00001326  00000+0  12301-3 0  9992
2 43761  97.6186 298.2727 0015541  55.8339 304.4342 14.96013381202714
AISTECHSAT 2            
1 43768U 18099L   22233.12102063  .00001730  00000+0  15930-3 0  9993
2 43768  97.6127 296.5945 0012376  57.1366 303.1045 14.95951844202357
FOX-1CLIFF (AO-95)      
1 43770U 18099N   22233.17827055  .00001875  00000+0  16886-3 0  9997
2 43770  97.6158 297.8433 0015107  62.2814 297.9938 14.96690251202691
RANGE-A                 
1 43772U 18099Q   22233.14413399  .00003033  00000+0  26529-3 0  9991
2 43772  97.6286 299.6405 0014960  50.9396 309.3155 14.97395822202718
RANGE-B                 
1 43773U 18099R   22233.18628182  .00001687  00000+0  15432-3 0  9998
2 43773  97.6086 296.6278 0014289  51.3067 308.9430 14.96216379202670
2018-099T               
1 43775U 18099T   22233.18049221  .00001208  00000+0  11210-3 0  9990
2 43775  97.6162 297.9184 0015378  54.4991 305.7663 14.96160185202684
MOVE-II                 
1 43780U 18099Y   22233.14561387  .00003485  00000+0  29827-3 0  9996
2 43780  97.6221 299.0985 0014471  58.9298 301.3343 14.98156200202749
SNUSAT-2                
1 43782U 18099AA  22233.15165744  .00001433  00000+0  12982-3 0  9991
2 43782  97.6171 298.2967 0013572  49.3552 310.8848 14.96843222202711
SNUGLITE                
1 43784U 18099AC  22233.17959532  .00001954  00000+0  17409-3 0  9998
2 43784  97.6122 297.9562 0015484  55.6022 304.6661 14.97074399202741
ITASAT 1                
1 43786U 18099AE  22233.43338308  .00001130  00000+0  10347-3 0  9991
2 43786  97.6191 299.0452 0015825  53.7320 306.5361 14.96803975202779
KAZSCISAT-1             
1 43787U 18099AF  22233.46251150  .00003207  00000+0  27501-3 0  9991
2 43787  97.6111 298.3201 0014632  52.1515 308.1029 14.98130591202835
EAGLET-I                
1 43790U 18099AJ  22233.18824572  .00001425  00000+0  12879-3 0  9990
2 43790  97.6179 299.3464 0014116  58.9177 301.3428 14.96933454202475
ESEO                    
1 43792U 18099AL  22233.14904631  .00000696  00000+0  66528-4 0  9993
2 43792  97.6140 298.4297 0014533  56.5623 303.6986 14.96299845202509
CSIM-FD                 
1 43793U 18099AM  22233.42349483  .00002481  00000+0  21012-3 0  9995
2 43793  97.6231 300.3330 0013852  49.2359 311.0064 14.98836625202617
ASTROCAST 0.1           
1 43798U 18099AS  22233.13484114  .00003718  00000+0  31944-3 0  9998
2 43798  97.6197 299.8558 0012756  39.9674 320.2485 14.97975605202794
JY1SAT (JO-97)          
1 43803U 18099AX  22233.42844539  .00001393  00000+0  12459-3 0  9995
2 43803  97.6154 298.8155 0015657  52.6272 307.6373 14.97359003202798
SUOMI-100               
1 43804U 18099AY  22233.45080035  .00001903  00000+0  16890-3 0  9992
2 43804  97.6142 298.7453 0015586  54.0159 306.2506 14.97242365202804
AL-FARABI 2             
1 43805U 18099AZ  22233.61225523  .00003910  00000+0  33605-3 0  9997
2 43805  97.6176 299.4617 0016105  53.3208 306.9493 14.97901649202851
CENTAURI-1              
1 43809U 18099BD  22233.42985676  .00000913  00000+0  84347-4 0  9992
2 43809  97.6163 299.0213 0015984  54.2414 306.0291 14.96918632202498
CHOMPTT                 
1 43855U 18104G   22233.40759667  .00006344  00000+0  22710-3 0  9996
2 43855  85.0370   7.8104 0014958   5.2720 354.8680 15.28444870204646
DAVINCI                 
1 43857U 18104J   22233.40532797  .00033594  00000+0  79658-3 0  9991
2 43857  85.0271   4.9825 0009251  18.3247 341.8336 15.41536785204854
UWE-4                   
1 43880U 18111E   22233.24761576  .00001383  00000+0  12049-3 0  9998
2 43880  97.6619 138.4237 0013157  99.5411 260.7299 14.98443755199405
ZACUBE-2                
1 43907U 18111AH  22233.40728591  .00006568  00000+0  23748-3 0  9994
2 43907  97.1812 117.4079 0018412 203.7278 271.7570 15.28604936203218
MICRODRAGON             
1 43935U 19003D   22233.52922008  .00004108  00000+0  15971-3 0  9995
2 43935  97.1344 260.7264 0014900 307.2077  52.7801 15.26476421199629
AOBA VELOX-IV           
1 43940U 19003J   22233.05226109  .00017296  00000+0  42731-3 0  9994
2 43940  97.1221 267.1099 0014334 267.9035  92.0570 15.40443689200060
M6P                     
1 44109U 19018AF  22233.19164335  .00012895  00000+0  29958-3 0  9991
2 44109  97.3939 318.0855 0044088 253.0028 106.6385 15.41444120189423
FORMOSAT 7-4            
1 44350U 19036M   22233.47299919  .00002718  00000+0  14313-3 0  9999
2 44350  24.0001 296.2953 0006074 136.4894 223.6089 15.09728380173300
PAINANI 1               
1 44365U 19037A   22233.25533492  .00038517  00000+0  49026-3 0  9994
2 44365  44.9975   1.4100 0011685 278.4763  81.4807 15.58670303177333
METEOR-M2 2             
1 44387U 19038A   22233.44064746 -.00000005  00000+0  17319-4 0  9994
2 44387  98.7275 193.7144 0002447  85.7450 274.4014 14.23717261162657
VDNH-80                 
1 44392U 19038G   22233.52015321  .00007095  00000+0  35142-3 0  9992
2 44392  97.6390 204.0065 0017193 266.3551 232.4971 15.17962015172717
D-STAR ONE (LIGHTSAT)   
1 44393U 19038H   22233.43881434  .00005515  00000+0  27350-3 0  9996
2 44393  97.6400 203.8202 0017132 266.8257  93.1016 15.18025946172896
AMGU-1 (AMURSAT)        
1 44394U 19038J   22233.56283905  .00007940  00000+0  38878-3 0  9991
2 44394  97.6378 203.9117 0017175 268.0221  91.9043 15.18326082172913
DOT-1                   
1 44399U 19038P   22233.49009087  .00003361  00000+0  17950-3 0  9996
2 44399  97.6443 202.5070 0020769 274.7027  85.1834 15.15657648172796
SOKRAT                  
1 44404U 19038U   22233.43331565  .00005746  00000+0  28415-3 0  9993
2 44404  97.6388 203.4208 0017217 268.6778  91.2483 15.18104678172873
